{
  "type": "FeatureCollection",
  "features": [
    {
      "type": "Feature",
      "properties": {
        "norad_id": 33860,
        "name": "IRIDIUM 33 DEB",
        "group": "iridium-33-debris",
        "lat": -42.562074231328154,
        "lon": -149.31970997534108,
        "alt_km": 680.0622481034079,
        "timestamp": "2025-12-12T11:38:31.797092+00:00",
        "meta_object_name": "IRIDIUM 33 DEB",
        "meta_object_id": "1997-051AD",
        "meta_epoch": "2025-12-12T02:34:47.224128",
        "meta_mean_motion": 14.67356525,
        "meta_eccentricity": 0.0007557,
        "meta_inclination": 86.3837,
        "meta_ra_of_asc_node": 27.5179,
        "meta_arg_of_pericenter": 359.9518,
        "meta_mean_anomaly": 29.3124,
        "meta_ephemeris_type": 0,
        "meta_classification_type": "U",
        "meta_norad_cat_id": 33860,
        "meta_element_set_no": 999,
        "meta_rev_at_epoch": 88713,
        "meta_bstar": 0.0018446,
        "meta_mean_motion_dot": 0.00010448,
        "meta_mean_motion_ddot": 0,
        "tle_line1": "1 33860U 97051AD  25346.10749102  .00010448  00000+0  18446-2 0  9997",
        "tle_line2": "2 33860  86.3837  27.5179 0007557 359.9518  29.3124 14.67356525887134"
      },
      "geometry": {
        "type": "Point",
        "coordinates": [
          -149.31970997534108,
          -42.562074231328154
        ]
      }
    },
    {
      "type": "Feature",
      "properties": {
        "norad_id": 33862,
        "name": "IRIDIUM 33 DEB",
        "group": "iridium-33-debris",
        "lat": -75.511177021613,
        "lon": -128.29363518647526,
        "alt_km": 707.6615887576927,
        "timestamp": "2025-12-12T11:38:31.797104+00:00",
        "meta_object_name": "IRIDIUM 33 DEB",
        "meta_object_id": "1997-051AF",
        "meta_epoch": "2025-12-12T04:11:14.355744",
        "meta_mean_motion": 14.69464382,
        "meta_eccentricity": 0.005352,
        "meta_inclination": 86.4092,
        "meta_ra_of_asc_node": 37.7792,
        "meta_arg_of_pericenter": 71.1208,
        "meta_mean_anomaly": 342.7383,
        "meta_ephemeris_type": 0,
        "meta_classification_type": "U",
        "meta_norad_cat_id": 33862,
        "meta_element_set_no": 999,
        "meta_rev_at_epoch": 88815,
        "meta_bstar": 0.00218,
        "meta_mean_motion_dot": 0.00013234,
        "meta_mean_motion_ddot": 0,
        "tle_line1": "1 33862U 97051AF  25346.17447171  .00013234  00000+0  21800-2 0  9991",
        "tle_line2": "2 33862  86.4092  37.7792 0053520  71.1208 342.7383 14.69464382888159"
      },
      "geometry": {
        "type": "Point",
        "coordinates": [
          -128.29363518647526,
          -75.511177021613
        ]
      }
    },
    {
      "type": "Feature",
      "properties": {
        "norad_id": 33866,
        "name": "IRIDIUM 33 DEB",
        "group": "iridium-33-debris",
        "lat": 1.1591144259574881,
        "lon": 93.21821850132078,
        "alt_km": 888.0794953556542,
        "timestamp": "2025-12-12T11:38:31.797116+00:00",
        "meta_object_name": "IRIDIUM 33 DEB",
        "meta_object_id": "1997-051AK",
        "meta_epoch": "2025-12-12T02:05:43.156320",
        "meta_mean_motion": 14.2527188,
        "meta_eccentricity": 0.011444,
        "meta_inclination": 86.2997,
        "meta_ra_of_asc_node": 93.3115,
        "meta_arg_of_pericenter": 163.4649,
        "meta_mean_anomaly": 318.4965,
        "meta_ephemeris_type": 0,
        "meta_classification_type": "U",
        "meta_norad_cat_id": 33866,
        "meta_element_set_no": 999,
        "meta_rev_at_epoch": 86801,
        "meta_bstar": 0.0010928,
        "meta_mean_motion_dot": 2.771e-05,
        "meta_mean_motion_ddot": 0,
        "tle_line1": "1 33866U 97051AK  25346.08730505  .00002771  00000+0  10928-2 0  9994",
        "tle_line2": "2 33866  86.2997  93.3115 0114440 163.4649 318.4965 14.25271880868015"
      },
      "geometry": {
        "type": "Point",
        "coordinates": [
          93.21821850132078,
          1.1591144259574881
        ]
      }
    },
    {
      "type": "Feature",
      "properties": {
        "norad_id": 33867,
        "name": "IRIDIUM 33 DEB",
        "group": "iridium-33-debris",
        "lat": -84.24509850193229,
        "lon": -150.65017619261266,
        "alt_km": 383.21929499641647,
        "timestamp": "2025-12-12T11:38:31.797127+00:00",
        "meta_object_name": "IRIDIUM 33 DEB",
        "meta_object_id": "1997-051AL",
        "meta_epoch": "2025-12-11T23:46:57.533088",
        "meta_mean_motion": 15.66357552,
        "meta_eccentricity": 0.0013372,
        "meta_inclination": 86.3648,
        "meta_ra_of_asc_node": 350.4931,
        "meta_arg_of_pericenter": 89.3333,
        "meta_mean_anomaly": 270.9467,
        "meta_ephemeris_type": 0,
        "meta_classification_type": "U",
        "meta_norad_cat_id": 33867,
        "meta_element_set_no": 999,
        "meta_rev_at_epoch": 89499,
        "meta_bstar": 0.0085222,
        "meta_mean_motion_dot": 0.00974295,
        "meta_mean_motion_ddot": 0,
        "tle_line1": "1 33867U 97051AL  25345.99094367  .00974295  00000+0  85222-2 0  9991",
        "tle_line2": "2 33867  86.3648 350.4931 0013372  89.3333 270.9467 15.66357552894993"
      },
      "geometry": {
        "type": "Point",
        "coordinates": [
          -150.65017619261266,
          -84.24509850193229
        ]
      }
    },
    {
      "type": "Feature",
      "properties": {
        "norad_id": 33870,
        "name": "IRIDIUM 33 DEB",
        "group": "iridium-33-debris",
        "lat": 80.63679830719208,
        "lon": 80.98426216555134,
        "alt_km": 733.8225245826443,
        "timestamp": "2025-12-12T11:38:31.797138+00:00",
        "meta_object_name": "IRIDIUM 33 DEB",
        "meta_object_id": "1997-051AP",
        "meta_epoch": "2025-12-11T05:37:02.620704",
        "meta_mean_motion": 14.45838487,
        "meta_eccentricity": 0.00213236,
        "meta_inclination": 86.3744,
        "meta_ra_of_asc_node": 58.9059,
        "meta_arg_of_pericenter": 182.8727,
        "meta_mean_anomaly": 231.2371,
        "meta_ephemeris_type": 0,
        "meta_classification_type": "U",
        "meta_norad_cat_id": 33870,
        "meta_element_set_no": 999,
        "meta_rev_at_epoch": 88115,
        "meta_bstar": 0.0012319282,
        "meta_mean_motion_dot": 4.403e-05,
        "meta_mean_motion_ddot": 0,
        "tle_line1": "1 33870U 97051AP  25345.23405811  .00004403  00000+0  12319-2 0  9994",
        "tle_line2": "2 33870  86.3744  58.9059 0021323 182.8727 231.2371 14.45838487881151"
      },
      "geometry": {
        "type": "Point",
        "coordinates": [
          80.98426216555134,
          80.63679830719208
        ]
      }
    },
    {
      "type": "Feature",
      "properties": {
        "norad_id": 33881,
        "name": "IRIDIUM 33 DEB",
        "group": "iridium-33-debris",
        "lat": -59.238516211918615,
        "lon": 100.7576457386467,
        "alt_km": 736.3851963761335,
        "timestamp": "2025-12-12T11:38:31.797149+00:00",
        "meta_object_name": "IRIDIUM 33 DEB",
        "meta_object_id": "1997-051BA",
        "meta_epoch": "2025-12-12T03:55:05.956896",
        "meta_mean_motion": 14.56558764,
        "meta_eccentricity": 0.0061465,
        "meta_inclination": 86.386,
        "meta_ra_of_asc_node": 106.9929,
        "meta_arg_of_pericenter": 176.5725,
        "meta_mean_anomaly": 237.0343,
        "meta_ephemeris_type": 0,
        "meta_classification_type": "U",
        "meta_norad_cat_id": 33881,
        "meta_element_set_no": 999,
        "meta_rev_at_epoch": 87492,
        "meta_bstar": 0.0031107,
        "meta_mean_motion_dot": 0.00014247,
        "meta_mean_motion_ddot": 0,
        "tle_line1": "1 33881U 97051BA  25346.16326339  .00014247  00000+0  31107-2 0  9999",
        "tle_line2": "2 33881  86.3860 106.9929 0061465 176.5725 237.0343 14.56558764874920"
      },
      "geometry": {
        "type": "Point",
        "coordinates": [
          100.7576457386467,
          -59.238516211918615
        ]
      }
    },
    {
      "type": "Feature",
      "properties": {
        "norad_id": 33884,
        "name": "IRIDIUM 33 DEB",
        "group": "iridium-33-debris",
        "lat": -47.48823814686553,
        "lon": -166.0959605666631,
        "alt_km": 645.2762740308754,
        "timestamp": "2025-12-12T11:38:31.797160+00:00",
        "meta_object_name": "IRIDIUM 33 DEB",
        "meta_object_id": "1997-051BD",
        "meta_epoch": "2025-12-12T01:07:10.833024",
        "meta_mean_motion": 14.77408265,
        "meta_eccentricity": 0.0009744,
        "meta_inclination": 86.3699,
        "meta_ra_of_asc_node": 10.1308,
        "meta_arg_of_pericenter": 326.4674,
        "meta_mean_anomaly": 90.7894,
        "meta_ephemeris_type": 0,
        "meta_classification_type": "U",
        "meta_norad_cat_id": 33884,
        "meta_element_set_no": 999,
        "meta_rev_at_epoch": 88837,
        "meta_bstar": 0.0020847,
        "meta_mean_motion_dot": 0.00014881,
        "meta_mean_motion_ddot": 0,
        "tle_line1": "1 33884U 97051BD  25346.04665316  .00014881  00000+0  20847-2 0  9993",
        "tle_line2": "2 33884  86.3699  10.1308 0009744 326.4674  90.7894 14.77408265888373"
      },
      "geometry": {
        "type": "Point",
        "coordinates": [
          -166.0959605666631,
          -47.48823814686553
        ]
      }
    }
  ]
}